[{"OBJECT_NAME":"STARLINK-6163","OBJECT_ID":"2023-090AD","EPOCH":"2026-03-09T00:04:10.228224","MEAN_MOTION":15.02537016,"ECCENTRICITY":0.00011862,"INCLINATION":43.003,"RA_OF_ASC_NODE":278.0726,"ARG_OF_PERICENTER":275.0659,"MEAN_ANOMALY":85.0048,"EPHEMERIS_TYPE":0,"CLASSIFICATION_TYPE":"U","NORAD_CAT_ID":57128,"ELEMENT_SET_NO":999,"REV_AT_EPOCH":15012,"BSTAR":3.9953291e-5,"MEAN_MOTION_DOT":3.36e-6,"MEAN_MOTION_DDOT":0},{"OBJECT_NAME":"CZ-6A DEB","OBJECT_ID":"2022-151WD","EPOCH":"2026-03-09T18:15:50.585760","MEAN_MOTION":14.95909888,"ECCENTRICITY":0.00406186,"INCLINATION":98.6454,"RA_OF_ASC_NODE":143.7847,"ARG_OF_PERICENTER":193.5421,"MEAN_ANOMALY":166.4711,"EPHEMERIS_TYPE":0,"CLASSIFICATION_TYPE":"U","NORAD_CAT_ID":55212,"ELEMENT_SET_NO":999,"REV_AT_EPOCH":17107,"BSTAR":0.0046813987,"MEAN_MOTION_DOT":0.00053565,"MEAN_MOTION_DDOT":0}]
